1 38241U 97051ZR  26110.28206532  .00001731  00000+0  39076-3 0  9997
2 38241  86.3176 293.8517 0003449  25.7476 334.3903 14.55766208620701
